{
  "type": "FeatureCollection",
  "features": [
    {
      "type": "Feature",
      "properties": {
        "norad_id": 31028,
        "name": "FENGYUN 1C DEB",
        "group": "fengyun-1c-debris",
        "lat": -6.53661008731869,
        "lon": -83.322095387119,
        "alt_km": 857.4171667495839,
        "timestamp": "2025-12-09T14:52:26.441982+00:00",
        "meta_object_name": "FENGYUN 1C DEB",
        "meta_object_id": "1999-025BDW",
        "meta_epoch": "2025-11-26T01:54:24.970752",
        "meta_mean_motion": 13.89048666,
        "meta_eccentricity": 0.01654825,
        "meta_inclination": 98.7043,
        "meta_ra_of_asc_node": 263.016,
        "meta_arg_of_pericenter": 340.0889,
        "meta_mean_anomaly": 19.3862,
        "meta_ephemeris_type": 0,
        "meta_classification_type": "U",
        "meta_norad_cat_id": 31028,
        "meta_element_set_no": 999,
        "meta_rev_at_epoch": 61772,
        "meta_bstar": 0.00043609826,
        "meta_mean_motion_dot": 5.49e-06,
        "meta_mean_motion_ddot": 0,
        "tle_line1": "1 31028U 99025BDW 25330.07945568  .00000549  00000+0  43610-3 0  9990",
        "tle_line2": "2 31028  98.7043 263.0160 0165482 340.0889  19.3862 13.89048666617726"
      },
      "geometry": {
        "type": "Point",
        "coordinates": [
          -83.322095387119,
          -6.53661008731869
        ]
      }
    },
    {
      "type": "Feature",
      "properties": {
        "norad_id": 31029,
        "name": "FENGYUN 1C DEB",
        "group": "fengyun-1c-debris",
        "lat": 53.09516236266924,
        "lon": 72.42925520191218,
        "alt_km": 724.9357337458378,
        "timestamp": "2025-12-09T14:52:26.441992+00:00",
        "meta_object_name": "FENGYUN 1C DEB",
        "meta_object_id": "1999-025BDX",
        "meta_epoch": "2025-12-09T04:56:45.642912",
        "meta_mean_motion": 14.34311074,
        "meta_eccentricity": 0.00900939,
        "meta_inclination": 98.8589,
        "meta_ra_of_asc_node": 240.0187,
        "meta_arg_of_pericenter": 84.0888,
        "meta_mean_anomaly": 66.3562,
        "meta_ephemeris_type": 0,
        "meta_classification_type": "U",
        "meta_norad_cat_id": 31029,
        "meta_element_set_no": 999,
        "meta_rev_at_epoch": 97745,
        "meta_bstar": 0.0004574291,
        "meta_mean_motion_dot": 1.299e-05,
        "meta_mean_motion_ddot": 0,
        "tle_line1": "1 31029U 99025BDX 25343.20608383  .00001299  00000+0  45743-3 0  9993",
        "tle_line2": "2 31029  98.8589 240.0187 0090093  84.0888  66.3562 14.34311074977451"
      },
      "geometry": {
        "type": "Point",
        "coordinates": [
          72.42925520191218,
          53.09516236266924
        ]
      }
    },
    {
      "type": "Feature",
      "properties": {
        "norad_id": 31030,
        "name": "FENGYUN 1C DEB",
        "group": "fengyun-1c-debris",
        "lat": 64.46643337273524,
        "lon": 26.705688374677347,
        "alt_km": 788.7184714619098,
        "timestamp": "2025-12-09T14:52:26.442002+00:00",
        "meta_object_name": "FENGYUN 1C DEB",
        "meta_object_id": "1999-025BDY",
        "meta_epoch": "2025-12-08T15:40:05.884032",
        "meta_mean_motion": 14.23648706,
        "meta_eccentricity": 0.0028052,
        "meta_inclination": 98.7668,
        "meta_ra_of_asc_node": 44.589,
        "meta_arg_of_pericenter": 95.8447,
        "meta_mean_anomaly": 57.5385,
        "meta_ephemeris_type": 0,
        "meta_classification_type": "U",
        "meta_norad_cat_id": 31030,
        "meta_element_set_no": 999,
        "meta_rev_at_epoch": 96646,
        "meta_bstar": 0.0015375,
        "meta_mean_motion_dot": 3.477e-05,
        "meta_mean_motion_ddot": 0,
        "tle_line1": "1 31030U 99025BDY 25342.65284588  .00003477  00000+0  15375-2 0  9997",
        "tle_line2": "2 31030  98.7668  44.5890 0028052  95.8447  57.5385 14.23648706966462"
      },
      "geometry": {
        "type": "Point",
        "coordinates": [
          26.705688374677347,
          64.46643337273524
        ]
      }
    },
    {
      "type": "Feature",
      "properties": {
        "norad_id": 31031,
        "name": "FENGYUN 1C DEB",
        "group": "fengyun-1c-debris",
        "lat": 77.57363475009906,
        "lon": 127.1120136566853,
        "alt_km": 817.2536522360515,
        "timestamp": "2025-12-09T14:52:26.442012+00:00",
        "meta_object_name": "FENGYUN 1C DEB",
        "meta_object_id": "1999-025BDZ",
        "meta_epoch": "2025-12-06T17:15:45.296928",
        "meta_mean_motion": 14.20967849,
        "meta_eccentricity": 0.0027503,
        "meta_inclination": 99.0712,
        "meta_ra_of_asc_node": 257.6633,
        "meta_arg_of_pericenter": 204.2383,
        "meta_mean_anomaly": 185.4692,
        "meta_ephemeris_type": 0,
        "meta_classification_type": "U",
        "meta_norad_cat_id": 31031,
        "meta_element_set_no": 999,
        "meta_rev_at_epoch": 96769,
        "meta_bstar": 0.00074154334,
        "meta_mean_motion_dot": 1.566e-05,
        "meta_mean_motion_ddot": 0,
        "tle_line1": "1 31031U 99025BDZ 25340.71927427  .00001566  00000+0  74154-3 0  9997",
        "tle_line2": "2 31031  99.0712 257.6633 0027503 204.2383 185.4692 14.20967849967691"
      },
      "geometry": {
        "type": "Point",
        "coordinates": [
          127.1120136566853,
          77.57363475009906
        ]
      }
    },
    {
      "type": "Feature",
      "properties": {
        "norad_id": 31032,
        "name": "FENGYUN 1C DEB",
        "group": "fengyun-1c-debris",
        "lat": -29.34247902431729,
        "lon": -2.3074576436301446,
        "alt_km": 950.2434941646907,
        "timestamp": "2025-12-09T14:52:26.442023+00:00",
        "meta_object_name": "FENGYUN 1C DEB",
        "meta_object_id": "1999-025BEA",
        "meta_epoch": "2025-12-08T23:53:18.112128",
        "meta_mean_motion": 14.02175995,
        "meta_eccentricity": 0.0138936,
        "meta_inclination": 99.4003,
        "meta_ra_of_asc_node": 351.7054,
        "meta_arg_of_pericenter": 206.1922,
        "meta_mean_anomaly": 212.6619,
        "meta_ephemeris_type": 0,
        "meta_classification_type": "U",
        "meta_norad_cat_id": 31032,
        "meta_element_set_no": 999,
        "meta_rev_at_epoch": 94929,
        "meta_bstar": 0.0015183,
        "meta_mean_motion_dot": 2.481e-05,
        "meta_mean_motion_ddot": 0,
        "tle_line1": "1 31032U 99025BEA 25342.99534852  .00002481  00000+0  15183-2 0  9999",
        "tle_line2": "2 31032  99.4003 351.7054 0138936 206.1922 212.6619 14.02175995949296"
      },
      "geometry": {
        "type": "Point",
        "coordinates": [
          -2.3074576436301446,
          -29.34247902431729
        ]
      }
    },
    {
      "type": "Feature",
      "properties": {
        "norad_id": 31033,
        "name": "FENGYUN 1C DEB",
        "group": "fengyun-1c-debris",
        "lat": 77.79222787100001,
        "lon": -174.62479087797786,
        "alt_km": 689.3341543868364,
        "timestamp": "2025-12-09T14:52:26.442033+00:00",
        "meta_object_name": "FENGYUN 1C DEB",
        "meta_object_id": "1999-025BEB",
        "meta_epoch": "2025-12-08T17:21:40.161600",
        "meta_mean_motion": 14.27446167,
        "meta_eccentricity": 0.01540192,
        "meta_inclination": 98.4379,
        "meta_ra_of_asc_node": 321.1871,
        "meta_arg_of_pericenter": 122.1947,
        "meta_mean_anomaly": 53.6224,
        "meta_ephemeris_type": 0,
        "meta_classification_type": "U",
        "meta_norad_cat_id": 31033,
        "meta_element_set_no": 999,
        "meta_rev_at_epoch": 97288,
        "meta_bstar": 0.00032057907,
        "meta_mean_motion_dot": 8.5e-06,
        "meta_mean_motion_ddot": 0,
        "tle_line1": "1 31033U 99025BEB 25342.72338150  .00000850  00000+0  32058-3 0  9993",
        "tle_line2": "2 31033  98.4379 321.1871 0154019 122.1947  53.6224 14.27446167972889"
      },
      "geometry": {
        "type": "Point",
        "coordinates": [
          -174.62479087797786,
          77.79222787100001
        ]
      }
    },
    {
      "type": "Feature",
      "properties": {
        "norad_id": 31036,
        "name": "FENGYUN 1C DEB",
        "group": "fengyun-1c-debris",
        "lat": 27.242081762195987,
        "lon": 85.26838068132245,
        "alt_km": 765.656314720577,
        "timestamp": "2025-12-09T14:52:26.442043+00:00",
        "meta_object_name": "FENGYUN 1C DEB",
        "meta_object_id": "1999-025BEE",
        "meta_epoch": "2025-12-08T05:44:25.920096",
        "meta_mean_motion": 14.49059493,
        "meta_eccentricity": 0.01376047,
        "meta_inclination": 98.9154,
        "meta_ra_of_asc_node": 88.4459,
        "meta_arg_of_pericenter": 278.2122,
        "meta_mean_anomaly": 110.3171,
        "meta_ephemeris_type": 0,
        "meta_classification_type": "U",
        "meta_norad_cat_id": 31036,
        "meta_element_set_no": 999,
        "meta_rev_at_epoch": 57242,
        "meta_bstar": 0.0004229533,
        "meta_mean_motion_dot": 1.753e-05,
        "meta_mean_motion_ddot": 0,
        "tle_line1": "1 31036U 99025BEE 25342.23918889  .00001753  00000+0  42295-3 0  9992",
        "tle_line2": "2 31036  98.9154  88.4459 0137604 278.2122 110.3171 14.49059493572426"
      },
      "geometry": {
        "type": "Point",
        "coordinates": [
          85.26838068132245,
          27.242081762195987
        ]
      }
    }
  ]
}